{
  "type": "FeatureCollection",
  "features": [
    {
      "type": "Feature",
      "properties": {
        "norad_id": 39766,
        "name": "ALOS-2",
        "group": "resource",
        "lat": -22.927301491905943,
        "lon": 83.69491695224396,
        "alt_km": 636.9555707749514,
        "timestamp": "2025-12-11T10:53:15.541917+00:00",
        "meta_object_name": "ALOS-2",
        "meta_object_id": "2014-029A",
        "meta_epoch": "2025-12-11T06:07:21.242208",
        "meta_mean_motion": 14.79475296,
        "meta_eccentricity": 0.0001377,
        "meta_inclination": 97.9226,
        "meta_ra_of_asc_node": 80.1224,
        "meta_arg_of_pericenter": 100.5045,
        "meta_mean_anomaly": 259.6322,
        "meta_ephemeris_type": 0,
        "meta_classification_type": "U",
        "meta_norad_cat_id": 39766,
        "meta_element_set_no": 999,
        "meta_rev_at_epoch": 62379,
        "meta_bstar": 0.0009475,
        "meta_mean_motion_dot": 7.032e-05,
        "meta_mean_motion_ddot": 0,
        "tle_line1": "1 39766U 14029A   25345.25510697  .00007032  00000+0  94750-3 0  9990",
        "tle_line2": "2 39766  97.9226  80.1224 0001377 100.5045 259.6322 14.79475296623798"
      },
      "geometry": {
        "type": "Point",
        "coordinates": [
          83.69491695224396,
          -22.927301491905943
        ]
      }
    },
    {
      "type": "Feature",
      "properties": {
        "norad_id": 40010,
        "name": "KAZEOSAT 2",
        "group": "resource",
        "lat": -40.464110590974705,
        "lon": 3.3382154244994826,
        "alt_km": 614.437450631388,
        "timestamp": "2025-12-11T10:53:15.541928+00:00",
        "meta_object_name": "KAZEOSAT 2",
        "meta_object_id": "2014-033A",
        "meta_epoch": "2025-12-11T03:25:42.283200",
        "meta_mean_motion": 14.85165743,
        "meta_eccentricity": 0.0007532,
        "meta_inclination": 97.5503,
        "meta_ra_of_asc_node": 189.5398,
        "meta_arg_of_pericenter": 212.393,
        "meta_mean_anomaly": 147.6824,
        "meta_ephemeris_type": 0,
        "meta_classification_type": "U",
        "meta_norad_cat_id": 40010,
        "meta_element_set_no": 999,
        "meta_rev_at_epoch": 62104,
        "meta_bstar": 0.00020771,
        "meta_mean_motion_dot": 1.729e-05,
        "meta_mean_motion_ddot": 0,
        "tle_line1": "1 40010U 14033A   25345.14285050  .00001729  00000+0  20771-3 0  9998",
        "tle_line2": "2 40010  97.5503 189.5398 0007532 212.3930 147.6824 14.85165743621045"
      },
      "geometry": {
        "type": "Point",
        "coordinates": [
          3.3382154244994826,
          -40.464110590974705
        ]
      }
    },
    {
      "type": "Feature",
      "properties": {
        "norad_id": 40011,
        "name": "HODOYOSHI-4",
        "group": "resource",
        "lat": -61.03736396724542,
        "lon": -171.75025105027308,
        "alt_km": 613.7884847898658,
        "timestamp": "2025-12-11T10:53:15.541939+00:00",
        "meta_object_name": "HODOYOSHI-4",
        "meta_object_id": "2014-033B",
        "meta_epoch": "2025-12-11T04:42:30.678624",
        "meta_mean_motion": 14.87469493,
        "meta_eccentricity": 0.002313,
        "meta_inclination": 97.5414,
        "meta_ra_of_asc_node": 174.1561,
        "meta_arg_of_pericenter": 206.1087,
        "meta_mean_anomaly": 153.8965,
        "meta_ephemeris_type": 0,
        "meta_classification_type": "U",
        "meta_norad_cat_id": 40011,
        "meta_element_set_no": 999,
        "meta_rev_at_epoch": 62085,
        "meta_bstar": 0.00027297,
        "meta_mean_motion_dot": 2.432e-05,
        "meta_mean_motion_ddot": 0,
        "tle_line1": "1 40011U 14033B   25345.19618841  .00002432  00000+0  27297-3 0  9994",
        "tle_line2": "2 40011  97.5414 174.1561 0023130 206.1087 153.8965 14.87469493620859"
      },
      "geometry": {
        "type": "Point",
        "coordinates": [
          -171.75025105027308,
          -61.03736396724542
        ]
      }
    },
    {
      "type": "Feature",
      "properties": {
        "norad_id": 40013,
        "name": "DEIMOS-2",
        "group": "resource",
        "lat": 68.33282472787114,
        "lon": -158.35897167691502,
        "alt_km": 581.4604090272351,
        "timestamp": "2025-12-11T10:53:15.541950+00:00",
        "meta_object_name": "DEIMOS-2",
        "meta_object_id": "2014-033D",
        "meta_epoch": "2025-12-11T04:08:33.604224",
        "meta_mean_motion": 14.92960898,
        "meta_eccentricity": 9.35e-05,
        "meta_inclination": 97.6063,
        "meta_ra_of_asc_node": 221.0247,
        "meta_arg_of_pericenter": 90.3871,
        "meta_mean_anomaly": 269.7455,
        "meta_ephemeris_type": 0,
        "meta_classification_type": "U",
        "meta_norad_cat_id": 40013,
        "meta_element_set_no": 999,
        "meta_rev_at_epoch": 60966,
        "meta_bstar": 0.00025789,
        "meta_mean_motion_dot": 2.623e-05,
        "meta_mean_motion_ddot": 0,
        "tle_line1": "1 40013U 14033D   25345.17261116  .00002623  00000+0  25789-3 0  9999",
        "tle_line2": "2 40013  97.6063 221.0247 0000935  90.3871 269.7455 14.92960898609665"
      },
      "geometry": {
        "type": "Point",
        "coordinates": [
          -158.35897167691502,
          68.33282472787114
        ]
      }
    },
    {
      "type": "Feature",
      "properties": {
        "norad_id": 40015,
        "name": "HODOYOSHI-3",
        "group": "resource",
        "lat": -54.830115009772385,
        "lon": -39.60772657769762,
        "alt_km": 599.9346552383277,
        "timestamp": "2025-12-11T10:53:15.541960+00:00",
        "meta_object_name": "HODOYOSHI-3",
        "meta_object_id": "2014-033F",
        "meta_epoch": "2025-12-11T04:58:33.756960",
        "meta_mean_motion": 14.84798425,
        "meta_eccentricity": 0.0031867,
        "meta_inclination": 97.62,
        "meta_ra_of_asc_node": 151.109,
        "meta_arg_of_pericenter": 253.1769,
        "meta_mean_anomaly": 106.595,
        "meta_ephemeris_type": 0,
        "meta_classification_type": "U",
        "meta_norad_cat_id": 40015,
        "meta_element_set_no": 999,
        "meta_rev_at_epoch": 61972,
        "meta_bstar": 0.0003351,
        "meta_mean_motion_dot": 2.817e-05,
        "meta_mean_motion_ddot": 0,
        "tle_line1": "1 40015U 14033F   25345.20733515  .00002817  00000+0  33510-3 0  9998",
        "tle_line2": "2 40015  97.6200 151.1090 0031867 253.1769 106.5950 14.84798425619724"
      },
      "geometry": {
        "type": "Point",
        "coordinates": [
          -39.60772657769762,
          -54.830115009772385
        ]
      }
    },
    {
      "type": "Feature",
      "properties": {
        "norad_id": 40053,
        "name": "SPOT 7",
        "group": "resource",
        "lat": 68.05052679226561,
        "lon": 26.889907586304123,
        "alt_km": 683.145662686512,
        "timestamp": "2025-12-11T10:53:15.541971+00:00",
        "meta_object_name": "SPOT 7",
        "meta_object_id": "2014-034A",
        "meta_epoch": "2025-12-11T03:59:40.556832",
        "meta_mean_motion": 14.60730676,
        "meta_eccentricity": 0.0001555,
        "meta_inclination": 98.0903,
        "meta_ra_of_asc_node": 47.2777,
        "meta_arg_of_pericenter": 88.92,
        "meta_mean_anomaly": 271.2179,
        "meta_ephemeris_type": 0,
        "meta_classification_type": "U",
        "meta_norad_cat_id": 40053,
        "meta_element_set_no": 999,
        "meta_rev_at_epoch": 60968,
        "meta_bstar": 0.00019304,
        "meta_mean_motion_dot": 8.96e-06,
        "meta_mean_motion_ddot": 0,
        "tle_line1": "1 40053U 14034A   25345.16644163  .00000896  00000+0  19304-3 0  9996",
        "tle_line2": "2 40053  98.0903  47.2777 0001555  88.9200 271.2179 14.60730676609688"
      },
      "geometry": {
        "type": "Point",
        "coordinates": [
          26.889907586304123,
          68.05052679226561
        ]
      }
    },
    {
      "type": "Feature",
      "properties": {
        "norad_id": 40072,
        "name": "SKYSAT-B",
        "group": "resource",
        "lat": -60.598614912912105,
        "lon": 93.9628401944663,
        "alt_km": 613.2907146325642,
        "timestamp": "2025-12-11T10:53:15.541982+00:00",
        "meta_object_name": "SKYSAT-B",
        "meta_object_id": "2014-037D",
        "meta_epoch": "2025-12-10T17:39:31.026528",
        "meta_mean_motion": 14.87315851,
        "meta_eccentricity": 0.00059891,
        "meta_inclination": 98.3608,
        "meta_ra_of_asc_node": 288.3359,
        "meta_arg_of_pericenter": 156.2588,
        "meta_mean_anomaly": 203.8904,
        "meta_ephemeris_type": 0,
        "meta_classification_type": "U",
        "meta_norad_cat_id": 40072,
        "meta_element_set_no": 999,
        "meta_rev_at_epoch": 61794,
        "meta_bstar": 0.00035726525,
        "meta_mean_motion_dot": 3.165e-05,
        "meta_mean_motion_ddot": 0,
        "tle_line1": "1 40072U 14037D   25344.73577577  .00003165  00000+0  35727-3 0  9995",
        "tle_line2": "2 40072  98.3608 288.3359 0005989 156.2588 203.8904 14.87315851617949"
      },
      "geometry": {
        "type": "Point",
        "coordinates": [
          93.9628401944663,
          -60.598614912912105
        ]
      }
    }
  ]
}